SL-14 R/B               
1 21423U 91042B   26060.92472526  .00000553  00000+0  66962-4 0  9994
2 21423  82.4910 227.4643 0015570 266.4194  93.5239 14.81819876851925
ERS-1                   
1 21574U 91050A   26060.98159117  .00000366  00000+0  13180-3 0  9999
2 21574  98.7886  79.0224 0031223 223.6766 136.1950 14.39442184814620
ARIANE 40 R/B           
1 21610U 91050F   26060.70414960  .00000341  00000+0  11448-3 0  9998
2 21610  98.2030 113.2398 0004388  98.4973 261.6715 14.42886685817842
INTERCOSMOS 25          
1 21819U 91086A   26060.98000318  .00001577  00000+0  30260-3 0  9991
2 21819  82.6066 314.6675 1487078 133.5419 239.9293 12.11974384495751
SL-8 R/B                
1 21876U 92008B   26060.95137001  .00000008  00000+0 -78023-5 0  9996
2 21876  82.9228 273.5362 0035175 154.4251 317.6105 13.75969851708358
SL-8 R/B                
1 21938U 92020B   26060.77473091  .00000075  00000+0  62064-4 0  9991
2 21938  82.9341 159.6364 0027976 321.8144 154.1826 13.75548406700041
USA 81                  
1 21949U 92023A   26060.69501706  .00000195  00000+0  64694-4 0  9996
2 21949  85.0100 136.0526 0002675  84.2846 275.8652 14.32364760 93649
COSMOS 2219             
1 22219U 92076A   26060.95202244  .00000332  00000+0  19904-3 0  9995
2 22219  71.0613  34.2420 0019395 217.3523 142.6253 14.14087971717281
SL-16 R/B               
1 22220U 92076B   26060.87049572  .00000160  00000+0  10380-3 0  9999
2 22220  70.9996 204.8431 0010706 110.6991   3.9166 14.16859396720728
COSMOS 2221             
1 22236U 92080A   26060.67881048  .00001978  00000+0  17310-3 0  9999
2 22236  82.5021 286.7555 0013333 215.4071 144.6267 14.96164925779590
SL-16 R/B               
1 22285U 92093B   26060.96578845 -.00000102  00000+0 -27678-4 0  9996
2 22285  71.0235  20.4789 0006221 302.0160  58.0358 14.15449667712064
COSMOS 2228             
1 22286U 92094A   26060.96780013  .00002601  00000+0  22242-3 0  9995
2 22286  82.5144 244.7055 0017287 332.1838  27.8458 14.97143405774905
