CCSDS_OMM_VERS = 2.0
CREATION_DATE  = 
ORIGINATOR     = 

OBJECT_NAME    = SL-14 R/B
OBJECT_ID      = 1991-042B
CENTER_NAME    = EARTH
REF_FRAME      = TEME
TIME_SYSTEM    = UTC
MEAN_ELEMENT_THEORY = SGP/SGP4

EPOCH          = 2026-03-01T22:11:36.262464
MEAN_MOTION    = 14.81819876
ECCENTRICITY   = .00155702
INCLINATION    = 82.4910
RA_OF_ASC_NODE = 227.4643
ARG_OF_PERICENTER = 266.4194
MEAN_ANOMALY   = 93.5239

EPHEMERIS_TYPE = 0
CLASSIFICATION_TYPE = U
NORAD_CAT_ID   = 21423
ELEMENT_SET_NO = 999
REV_AT_EPOCH   = 85192
BSTAR          = .66961593E-4
MEAN_MOTION_DOT = .553E-5
MEAN_MOTION_DDOT = 0

CCSDS_OMM_VERS = 2.0
CREATION_DATE  = 
ORIGINATOR     = 

OBJECT_NAME    = ERS-1
OBJECT_ID      = 1991-050A
CENTER_NAME    = EARTH
REF_FRAME      = TEME
TIME_SYSTEM    = UTC
MEAN_ELEMENT_THEORY = SGP/SGP4

EPOCH          = 2026-03-01T23:33:29.477088
MEAN_MOTION    = 14.39442184
ECCENTRICITY   = .00312233
INCLINATION    = 98.7886
RA_OF_ASC_NODE = 79.0224
ARG_OF_PERICENTER = 223.6766
MEAN_ANOMALY   = 136.1950

EPHEMERIS_TYPE = 0
CLASSIFICATION_TYPE = U
NORAD_CAT_ID   = 21574
ELEMENT_SET_NO = 999
REV_AT_EPOCH   = 81462
BSTAR          = .13180018E-3
MEAN_MOTION_DOT = .366E-5
MEAN_MOTION_DDOT = 0

CCSDS_OMM_VERS = 2.0
CREATION_DATE  = 
ORIGINATOR     = 

OBJECT_NAME    = ARIANE 40 R/B
OBJECT_ID      = 1991-050F
CENTER_NAME    = EARTH
REF_FRAME      = TEME
TIME_SYSTEM    = UTC
MEAN_ELEMENT_THEORY = SGP/SGP4

EPOCH          = 2026-03-01T16:53:58.525440
MEAN_MOTION    = 14.42886685
ECCENTRICITY   = .00043885
INCLINATION    = 98.2030
RA_OF_ASC_NODE = 113.2398
ARG_OF_PERICENTER = 98.4973
MEAN_ANOMALY   = 261.6715

EPHEMERIS_TYPE = 0
CLASSIFICATION_TYPE = U
NORAD_CAT_ID   = 21610
ELEMENT_SET_NO = 999
REV_AT_EPOCH   = 81784
BSTAR          = .11448464E-3
MEAN_MOTION_DOT = .341E-5
MEAN_MOTION_DDOT = 0

CCSDS_OMM_VERS = 2.0
CREATION_DATE  = 
ORIGINATOR     = 

OBJECT_NAME    = INTERCOSMOS 25
OBJECT_ID      = 1991-086A
CENTER_NAME    = EARTH
REF_FRAME      = TEME
TIME_SYSTEM    = UTC
MEAN_ELEMENT_THEORY = SGP/SGP4

EPOCH          = 2026-03-01T23:31:12.274752
MEAN_MOTION    = 12.11974384
ECCENTRICITY   = .14870783
INCLINATION    = 82.6066
RA_OF_ASC_NODE = 314.6675
ARG_OF_PERICENTER = 133.5419
MEAN_ANOMALY   = 239.9293

EPHEMERIS_TYPE = 0
CLASSIFICATION_TYPE = U
NORAD_CAT_ID   = 21819
ELEMENT_SET_NO = 999
REV_AT_EPOCH   = 49575
BSTAR          = .30259735E-3
MEAN_MOTION_DOT = .1577E-4
MEAN_MOTION_DDOT = 0

CCSDS_OMM_VERS = 2.0
CREATION_DATE  = 
ORIGINATOR     = 

OBJECT_NAME    = SL-8 R/B
OBJECT_ID      = 1992-008B
CENTER_NAME    = EARTH
REF_FRAME      = TEME
TIME_SYSTEM    = UTC
MEAN_ELEMENT_THEORY = SGP/SGP4

EPOCH          = 2026-03-01T22:49:58.368864
MEAN_MOTION    = 13.75969851
ECCENTRICITY   = .00351752
INCLINATION    = 82.9228
RA_OF_ASC_NODE = 273.5362
ARG_OF_PERICENTER = 154.4251
MEAN_ANOMALY   = 317.6105

EPHEMERIS_TYPE = 0
CLASSIFICATION_TYPE = U
NORAD_CAT_ID   = 21876
ELEMENT_SET_NO = 999
REV_AT_EPOCH   = 70835
BSTAR          = -.7802303E-5
MEAN_MOTION_DOT = .8E-7
MEAN_MOTION_DDOT = 0

CCSDS_OMM_VERS = 2.0
CREATION_DATE  = 
ORIGINATOR     = 

OBJECT_NAME    = SL-8 R/B
OBJECT_ID      = 1992-020B
CENTER_NAME    = EARTH
REF_FRAME      = TEME
TIME_SYSTEM    = UTC
MEAN_ELEMENT_THEORY = SGP/SGP4

EPOCH          = 2026-03-01T18:35:36.750624
MEAN_MOTION    = 13.75548406
ECCENTRICITY   = .00279768
INCLINATION    = 82.9341
RA_OF_ASC_NODE = 159.6364
ARG_OF_PERICENTER = 321.8144
MEAN_ANOMALY   = 154.1826

EPHEMERIS_TYPE = 0
CLASSIFICATION_TYPE = U
NORAD_CAT_ID   = 21938
ELEMENT_SET_NO = 999
REV_AT_EPOCH   = 70004
BSTAR          = .62064229E-4
MEAN_MOTION_DOT = .75E-6
MEAN_MOTION_DDOT = 0

CCSDS_OMM_VERS = 2.0
CREATION_DATE  = 
ORIGINATOR     = 

OBJECT_NAME    = USA 81
OBJECT_ID      = 1992-023A
CENTER_NAME    = EARTH
REF_FRAME      = TEME
TIME_SYSTEM    = UTC
MEAN_ELEMENT_THEORY = SGP/SGP4

EPOCH          = 2026-03-01T16:40:49.473984
MEAN_MOTION    = 14.32364760
ECCENTRICITY   = .00026754
INCLINATION    = 85.0100
RA_OF_ASC_NODE = 136.0526
ARG_OF_PERICENTER = 84.2846
MEAN_ANOMALY   = 275.8652

EPHEMERIS_TYPE = 0
CLASSIFICATION_TYPE = U
NORAD_CAT_ID   = 21949
ELEMENT_SET_NO = 999
REV_AT_EPOCH   = 9364
BSTAR          = .64693939E-4
MEAN_MOTION_DOT = .195E-5
MEAN_MOTION_DDOT = 0

CCSDS_OMM_VERS = 2.0
CREATION_DATE  = 
ORIGINATOR     = 

OBJECT_NAME    = COSMOS 2219
OBJECT_ID      = 1992-076A
CENTER_NAME    = EARTH
REF_FRAME      = TEME
TIME_SYSTEM    = UTC
MEAN_ELEMENT_THEORY = SGP/SGP4

EPOCH          = 2026-03-01T22:50:54.738816
MEAN_MOTION    = 14.14087971
ECCENTRICITY   = .00193955
INCLINATION    = 71.0613
RA_OF_ASC_NODE = 34.2420
ARG_OF_PERICENTER = 217.3523
MEAN_ANOMALY   = 142.6253

EPHEMERIS_TYPE = 0
CLASSIFICATION_TYPE = U
NORAD_CAT_ID   = 22219
ELEMENT_SET_NO = 999
REV_AT_EPOCH   = 71728
BSTAR          = .19904113E-3
MEAN_MOTION_DOT = .332E-5
MEAN_MOTION_DDOT = 0

CCSDS_OMM_VERS = 2.0
CREATION_DATE  = 
ORIGINATOR     = 

OBJECT_NAME    = SL-16 R/B
OBJECT_ID      = 1992-076B
CENTER_NAME    = EARTH
REF_FRAME      = TEME
TIME_SYSTEM    = UTC
MEAN_ELEMENT_THEORY = SGP/SGP4

EPOCH          = 2026-03-01T20:53:30.830208
MEAN_MOTION    = 14.16859396
ECCENTRICITY   = .00107068
INCLINATION    = 70.9996
RA_OF_ASC_NODE = 204.8431
ARG_OF_PERICENTER = 110.6991
MEAN_ANOMALY   = 3.9166

EPHEMERIS_TYPE = 0
CLASSIFICATION_TYPE = U
NORAD_CAT_ID   = 22220
ELEMENT_SET_NO = 999
REV_AT_EPOCH   = 72072
BSTAR          = .10379597E-3
MEAN_MOTION_DOT = .16E-5
MEAN_MOTION_DDOT = 0

CCSDS_OMM_VERS = 2.0
CREATION_DATE  = 
ORIGINATOR     = 

OBJECT_NAME    = COSMOS 2221
OBJECT_ID      = 1992-080A
CENTER_NAME    = EARTH
REF_FRAME      = TEME
TIME_SYSTEM    = UTC
MEAN_ELEMENT_THEORY = SGP/SGP4

EPOCH          = 2026-03-01T16:17:29.225472
MEAN_MOTION    = 14.96164925
ECCENTRICITY   = .00133336
INCLINATION    = 82.5021
RA_OF_ASC_NODE = 286.7555
ARG_OF_PERICENTER = 215.4071
MEAN_ANOMALY   = 144.6267

EPHEMERIS_TYPE = 0
CLASSIFICATION_TYPE = U
NORAD_CAT_ID   = 22236
ELEMENT_SET_NO = 999
REV_AT_EPOCH   = 77959
BSTAR          = .17309519E-3
MEAN_MOTION_DOT = .1978E-4
MEAN_MOTION_DDOT = 0

CCSDS_OMM_VERS = 2.0
CREATION_DATE  = 
ORIGINATOR     = 

OBJECT_NAME    = SL-16 R/B
OBJECT_ID      = 1992-093B
CENTER_NAME    = EARTH
REF_FRAME      = TEME
TIME_SYSTEM    = UTC
MEAN_ELEMENT_THEORY = SGP/SGP4

EPOCH          = 2026-03-01T23:10:44.122080
MEAN_MOTION    = 14.15449667
ECCENTRICITY   = .00062214
INCLINATION    = 71.0235
RA_OF_ASC_NODE = 20.4789
ARG_OF_PERICENTER = 302.0160
MEAN_ANOMALY   = 58.0358

EPHEMERIS_TYPE = 0
CLASSIFICATION_TYPE = U
NORAD_CAT_ID   = 22285
ELEMENT_SET_NO = 999
REV_AT_EPOCH   = 71206
BSTAR          = -.27677638E-4
MEAN_MOTION_DOT = -.102E-5
MEAN_MOTION_DDOT = 0

CCSDS_OMM_VERS = 2.0
CREATION_DATE  = 
ORIGINATOR     = 

OBJECT_NAME    = COSMOS 2228
OBJECT_ID      = 1992-094A
CENTER_NAME    = EARTH
REF_FRAME      = TEME
TIME_SYSTEM    = UTC
MEAN_ELEMENT_THEORY = SGP/SGP4

EPOCH          = 2026-03-01T23:13:37.931232
MEAN_MOTION    = 14.97143405
ECCENTRICITY   = .00172876
INCLINATION    = 82.5144
RA_OF_ASC_NODE = 244.7055
ARG_OF_PERICENTER = 332.1838
MEAN_ANOMALY   = 27.8458

EPHEMERIS_TYPE = 0
CLASSIFICATION_TYPE = U
NORAD_CAT_ID   = 22286
ELEMENT_SET_NO = 999
REV_AT_EPOCH   = 77490
BSTAR          = .22241767E-3
MEAN_MOTION_DOT = .2601E-4
MEAN_MOTION_DDOT = 0

